ONEWEB-0616             
1 55157U 23004T   23261.25001157  .00000013  00000+0  00000+0 0  9999
2 55157  88.1145 204.1747 0001974  65.7618 270.9476 13.21400196 35618
ONEWEB-0617             
1 55158U 23004U   23260.45771528 -.00000530  00000+0 -15318-2 0  9994
2 55158  87.8946 220.4748 0001246  75.8042 284.3225 13.11411979 34318
ONEWEB-0618             
1 55159U 23004V   23261.07755704  .00000447  00000+0  17720-3 0  9997
2 55159  86.9158 190.0451 0015710  87.7464 272.5527 14.26658325 36409
ONEWEB-0619             
1 55160U 23004W   23260.91667824 -.00030455  00000+0 -71132-1 0  9995
2 55160  87.9422 205.1892 0001862 113.2144 199.9839 13.24500884 35462
ONEWEB-0620             
1 55161U 23004X   23260.45243119 -.00000488  00000+0 -14127-2 0  9997
2 55161  87.8953 220.4763 0001435  65.2923 294.8354 13.11425684 34270
ONEWEB-0621             
1 55162U 23004Y   23260.40261542  .00000152  00000+0  39214-3 0  9994
2 55162  87.8932 220.4782 0001547 103.7885 256.3415 13.11413072 34244
ONEWEB-0622             
1 55163U 23004Z   23260.33371969 -.00000635  00000+0 -18275-2 0  9993
2 55163  87.8931 220.5009 0000882  68.1518 291.9704 13.11421595 34228
ONEWEB-0623             
1 55164U 23004AA  23260.91667824 -.00036001  00000+0 -92779-1 0  9992
2 55164  87.9230 205.2554 0003478  96.5171 329.2788 13.17898436 35463
