<?xml version="1.0" encoding="UTF-8"?>
<ndm xmlns:xsi="http://www.w3.org/2001/XMLSchema-instance" xsi:noNamespaceSchemaLocation="https://sanaregistry.org/r/ndmxml_unqualified/ndmxml-2.0.0-master-2.0.xsd">
<omm id="CCSDS_OMM_VERS" version="2.0">
<header><CREATION_DATE/><ORIGINATOR/></header><body><segment><metadata><OBJECT_NAME>ONEWEB-0616</OBJECT_NAME><OBJECT_ID>2023-004T</OBJECT_ID><CENTER_NAME>EARTH</CENTER_NAME><REF_FRAME>TEME</REF_FRAME><TIME_SYSTEM>UTC</TIME_SYSTEM><MEAN_ELEMENT_THEORY>SGP4</MEAN_ELEMENT_THEORY></metadata><data><meanElements><EPOCH>2023-09-18T06:00:00.999648</EPOCH><MEAN_MOTION>13.21400196</MEAN_MOTION><ECCENTRICITY>.0001974</ECCENTRICITY><INCLINATION>88.1145</INCLINATION><RA_OF_ASC_NODE>204.1747</RA_OF_ASC_NODE><ARG_OF_PERICENTER>65.7618</ARG_OF_PERICENTER><MEAN_ANOMALY>270.9476</MEAN_ANOMALY></meanElements><tleParameters><EPHEMERIS_TYPE>0</EPHEMERIS_TYPE><CLASSIFICATION_TYPE>U</CLASSIFICATION_TYPE><NORAD_CAT_ID>55157</NORAD_CAT_ID><ELEMENT_SET_NO>999</ELEMENT_SET_NO><REV_AT_EPOCH>3561</REV_AT_EPOCH><BSTAR>0</BSTAR><MEAN_MOTION_DOT>.13E-6</MEAN_MOTION_DOT><MEAN_MOTION_DDOT>0</MEAN_MOTION_DDOT></tleParameters></data></segment></body></omm>
<omm id="CCSDS_OMM_VERS" version="2.0">
<header><CREATION_DATE/><ORIGINATOR/></header><body><segment><metadata><OBJECT_NAME>ONEWEB-0617</OBJECT_NAME><OBJECT_ID>2023-004U</OBJECT_ID><CENTER_NAME>EARTH</CENTER_NAME><REF_FRAME>TEME</REF_FRAME><TIME_SYSTEM>UTC</TIME_SYSTEM><MEAN_ELEMENT_THEORY>SGP4</MEAN_ELEMENT_THEORY></metadata><data><meanElements><EPOCH>2023-09-17T10:59:06.600192</EPOCH><MEAN_MOTION>13.11411979</MEAN_MOTION><ECCENTRICITY>.0001246</ECCENTRICITY><INCLINATION>87.8946</INCLINATION><RA_OF_ASC_NODE>220.4748</RA_OF_ASC_NODE><ARG_OF_PERICENTER>75.8042</ARG_OF_PERICENTER><MEAN_ANOMALY>284.3225</MEAN_ANOMALY></meanElements><tleParameters><EPHEMERIS_TYPE>0</EPHEMERIS_TYPE><CLASSIFICATION_TYPE>U</CLASSIFICATION_TYPE><NORAD_CAT_ID>55158</NORAD_CAT_ID><ELEMENT_SET_NO>999</ELEMENT_SET_NO><REV_AT_EPOCH>3431</REV_AT_EPOCH><BSTAR>-.15318E-2</BSTAR><MEAN_MOTION_DOT>-.53E-5</MEAN_MOTION_DOT><MEAN_MOTION_DDOT>0</MEAN_MOTION_DDOT></tleParameters></data></segment></body></omm>
<omm id="CCSDS_OMM_VERS" version="2.0">
<header><CREATION_DATE/><ORIGINATOR/></header><body><segment><metadata><OBJECT_NAME>ONEWEB-0618</OBJECT_NAME><OBJECT_ID>2023-004V</OBJECT_ID><CENTER_NAME>EARTH</CENTER_NAME><REF_FRAME>TEME</REF_FRAME><TIME_SYSTEM>UTC</TIME_SYSTEM><MEAN_ELEMENT_THEORY>SGP4</MEAN_ELEMENT_THEORY></metadata><data><meanElements><EPOCH>2023-09-18T01:51:40.928256</EPOCH><MEAN_MOTION>14.26658325</MEAN_MOTION><ECCENTRICITY>.001571</ECCENTRICITY><INCLINATION>86.9158</INCLINATION><RA_OF_ASC_NODE>190.0451</RA_OF_ASC_NODE><ARG_OF_PERICENTER>87.7464</ARG_OF_PERICENTER><MEAN_ANOMALY>272.5527</MEAN_ANOMALY></meanElements><tleParameters><EPHEMERIS_TYPE>0</EPHEMERIS_TYPE><CLASSIFICATION_TYPE>U</CLASSIFICATION_TYPE><NORAD_CAT_ID>55159</NORAD_CAT_ID><ELEMENT_SET_NO>999</ELEMENT_SET_NO><REV_AT_EPOCH>3640</REV_AT_EPOCH><BSTAR>.1772E-3</BSTAR><MEAN_MOTION_DOT>.447E-5</MEAN_MOTION_DOT><MEAN_MOTION_DDOT>0</MEAN_MOTION_DDOT></tleParameters></data></segment></body></omm>
<omm id="CCSDS_OMM_VERS" version="2.0">
<header><CREATION_DATE/><ORIGINATOR/></header><body><segment><metadata><OBJECT_NAME>ONEWEB-0619</OBJECT_NAME><OBJECT_ID>2023-004W</OBJECT_ID><CENTER_NAME>EARTH</CENTER_NAME><REF_FRAME>TEME</REF_FRAME><TIME_SYSTEM>UTC</TIME_SYSTEM><MEAN_ELEMENT_THEORY>SGP4</MEAN_ELEMENT_THEORY></metadata><data><meanElements><EPOCH>2023-09-17T22:00:00.999936</EPOCH><MEAN_MOTION>13.24500884</MEAN_MOTION><ECCENTRICITY>.0001862</ECCENTRICITY><INCLINATION>87.9422</INCLINATION><RA_OF_ASC_NODE>205.1892</RA_OF_ASC_NODE><ARG_OF_PERICENTER>113.2144</ARG_OF_PERICENTER><MEAN_ANOMALY>199.9839</MEAN_ANOMALY></meanElements><tleParameters><EPHEMERIS_TYPE>0</EPHEMERIS_TYPE><CLASSIFICATION_TYPE>U</CLASSIFICATION_TYPE><NORAD_CAT_ID>55160</NORAD_CAT_ID><ELEMENT_SET_NO>999</ELEMENT_SET_NO><REV_AT_EPOCH>3546</REV_AT_EPOCH><BSTAR>-.71132E-1</BSTAR><MEAN_MOTION_DOT>-.30455E-3</MEAN_MOTION_DOT><MEAN_MOTION_DDOT>0</MEAN_MOTION_DDOT></tleParameters></data></segment></body></omm>
<omm id="CCSDS_OMM_VERS" version="2.0">
<header><CREATION_DATE/><ORIGINATOR/></header><body><segment><metadata><OBJECT_NAME>ONEWEB-0620</OBJECT_NAME><OBJECT_ID>2023-004X</OBJECT_ID><CENTER_NAME>EARTH</CENTER_NAME><REF_FRAME>TEME</REF_FRAME><TIME_SYSTEM>UTC</TIME_SYSTEM><MEAN_ELEMENT_THEORY>SGP4</MEAN_ELEMENT_THEORY></metadata><data><meanElements><EPOCH>2023-09-17T10:51:30.054816</EPOCH><MEAN_MOTION>13.11425684</MEAN_MOTION><ECCENTRICITY>.0001435</ECCENTRICITY><INCLINATION>87.8953</INCLINATION><RA_OF_ASC_NODE>220.4763</RA_OF_ASC_NODE><ARG_OF_PERICENTER>65.2923</ARG_OF_PERICENTER><MEAN_ANOMALY>294.8354</MEAN_ANOMALY></meanElements><tleParameters><EPHEMERIS_TYPE>0</EPHEMERIS_TYPE><CLASSIFICATION_TYPE>U</CLASSIFICATION_TYPE><NORAD_CAT_ID>55161</NORAD_CAT_ID><ELEMENT_SET_NO>999</ELEMENT_SET_NO><REV_AT_EPOCH>3427</REV_AT_EPOCH><BSTAR>-.14127E-2</BSTAR><MEAN_MOTION_DOT>-.488E-5</MEAN_MOTION_DOT><MEAN_MOTION_DDOT>0</MEAN_MOTION_DDOT></tleParameters></data></segment></body></omm>
<omm id="CCSDS_OMM_VERS" version="2.0">
<header><CREATION_DATE/><ORIGINATOR/></header><body><segment><metadata><OBJECT_NAME>ONEWEB-0621</OBJECT_NAME><OBJECT_ID>2023-004Y</OBJECT_ID><CENTER_NAME>EARTH</CENTER_NAME><REF_FRAME>TEME</REF_FRAME><TIME_SYSTEM>UTC</TIME_SYSTEM><MEAN_ELEMENT_THEORY>SGP4</MEAN_ELEMENT_THEORY></metadata><data><meanElements><EPOCH>2023-09-17T09:39:45.972288</EPOCH><MEAN_MOTION>13.11413072</MEAN_MOTION><ECCENTRICITY>.0001547</ECCENTRICITY><INCLINATION>87.8932</INCLINATION><RA_OF_ASC_NODE>220.4782</RA_OF_ASC_NODE><ARG_OF_PERICENTER>103.7885</ARG_OF_PERICENTER><MEAN_ANOMALY>256.3415</MEAN_ANOMALY></meanElements><tleParameters><EPHEMERIS_TYPE>0</EPHEMERIS_TYPE><CLASSIFICATION_TYPE>U</CLASSIFICATION_TYPE><NORAD_CAT_ID>55162</NORAD_CAT_ID><ELEMENT_SET_NO>999</ELEMENT_SET_NO><REV_AT_EPOCH>3424</REV_AT_EPOCH><BSTAR>.39214E-3</BSTAR><MEAN_MOTION_DOT>.152E-5</MEAN_MOTION_DOT><MEAN_MOTION_DDOT>0</MEAN_MOTION_DDOT></tleParameters></data></segment></body></omm>
<omm id="CCSDS_OMM_VERS" version="2.0">
<header><CREATION_DATE/><ORIGINATOR/></header><body><segment><metadata><OBJECT_NAME>ONEWEB-0622</OBJECT_NAME><OBJECT_ID>2023-004Z</OBJECT_ID><CENTER_NAME>EARTH</CENTER_NAME><REF_FRAME>TEME</REF_FRAME><TIME_SYSTEM>UTC</TIME_SYSTEM><MEAN_ELEMENT_THEORY>SGP4</MEAN_ELEMENT_THEORY></metadata><data><meanElements><EPOCH>2023-09-17T08:00:33.381216</EPOCH><MEAN_MOTION>13.11421595</MEAN_MOTION><ECCENTRICITY>.0000882</ECCENTRICITY><INCLINATION>87.8931</INCLINATION><RA_OF_ASC_NODE>220.5009</RA_OF_ASC_NODE><ARG_OF_PERICENTER>68.1518</ARG_OF_PERICENTER><MEAN_ANOMALY>291.9704</MEAN_ANOMALY></meanElements><tleParameters><EPHEMERIS_TYPE>0</EPHEMERIS_TYPE><CLASSIFICATION_TYPE>U</CLASSIFICATION_TYPE><NORAD_CAT_ID>55163</NORAD_CAT_ID><ELEMENT_SET_NO>999</ELEMENT_SET_NO><REV_AT_EPOCH>3422</REV_AT_EPOCH><BSTAR>-.18275E-2</BSTAR><MEAN_MOTION_DOT>-.635E-5</MEAN_MOTION_DOT><MEAN_MOTION_DDOT>0</MEAN_MOTION_DDOT></tleParameters></data></segment></body></omm>
<omm id="CCSDS_OMM_VERS" version="2.0">
<header><CREATION_DATE/><ORIGINATOR/></header><body><segment><metadata><OBJECT_NAME>ONEWEB-0623</OBJECT_NAME><OBJECT_ID>2023-004AA</OBJECT_ID><CENTER_NAME>EARTH</CENTER_NAME><REF_FRAME>TEME</REF_FRAME><TIME_SYSTEM>UTC</TIME_SYSTEM><MEAN_ELEMENT_THEORY>SGP4</MEAN_ELEMENT_THEORY></metadata><data><meanElements><EPOCH>2023-09-17T22:00:00.999936</EPOCH><MEAN_MOTION>13.17898436</MEAN_MOTION><ECCENTRICITY>.0003478</ECCENTRICITY><INCLINATION>87.9230</INCLINATION><RA_OF_ASC_NODE>205.2554</RA_OF_ASC_NODE><ARG_OF_PERICENTER>96.5171</ARG_OF_PERICENTER><MEAN_ANOMALY>329.2788</MEAN_ANOMALY></meanElements><tleParameters><EPHEMERIS_TYPE>0</EPHEMERIS_TYPE><CLASSIFICATION_TYPE>U</CLASSIFICATION_TYPE><NORAD_CAT_ID>55164</NORAD_CAT_ID><ELEMENT_SET_NO>999</ELEMENT_SET_NO><REV_AT_EPOCH>3546</REV_AT_EPOCH><BSTAR>-.92779E-1</BSTAR><MEAN_MOTION_DOT>-.36001E-3</MEAN_MOTION_DOT><MEAN_MOTION_DDOT>0</MEAN_MOTION_DDOT></tleParameters></data></segment></body></omm>

</ndm>
